[{"OBJECT_NAME":"GPS BIIF-4  (PRN 27)","OBJECT_ID":"2013-023A","EPOCH":"2022-08-18T04:02:45.238560","MEAN_MOTION":2.00565568,"ECCENTRICITY":0.0103964,"INCLINATION":55.6535,"RA_OF_ASC_NODE":325.3946,"ARG_OF_PERICENTER":38.619,"MEAN_ANOMALY":322.1553,"EPHEMERIS_TYPE":0,"CLASSIFICATION_TYPE":"U","NORAD_CAT_ID":39166,"ELEMENT_SET_NO":999,"REV_AT_EPOCH":6782,"BSTAR":0,"MEAN_MOTION_DOT":-1.01e-6,"MEAN_MOTION_DDOT":0},{"OBJECT_NAME":"GPS BIIF-5  (PRN 30)","OBJECT_ID":"2014-008A","EPOCH":"2022-08-19T04:00:42.067584","MEAN_MOTION":2.00557045,"ECCENTRICITY":0.0060748,"INCLINATION":53.6217,"RA_OF_ASC_NODE":206.2948,"ARG_OF_PERICENTER":209.8389,"MEAN_ANOMALY":149.7983,"EPHEMERIS_TYPE":0,"CLASSIFICATION_TYPE":"U","NORAD_CAT_ID":39533,"ELEMENT_SET_NO":999,"REV_AT_EPOCH":6164,"BSTAR":0,"MEAN_MOTION_DOT":5.7e-7,"MEAN_MOTION_DDOT":0},{"OBJECT_NAME":"GPS BIIF-6  (PRN 06)","OBJECT_ID":"2014-026A","EPOCH":"2022-08-17T10:54:59.778720","MEAN_MOTION":2.00551691,"ECCENTRICITY":0.0026237,"INCLINATION":56.5946,"RA_OF_ASC_NODE":25.8567,"ARG_OF_PERICENTER":305.6385,"MEAN_ANOMALY":54.1277,"EPHEMERIS_TYPE":0,"CLASSIFICATION_TYPE":"U","NORAD_CAT_ID":39741,"ELEMENT_SET_NO":999,"REV_AT_EPOCH":6046,"BSTAR":0,"MEAN_MOTION_DOT":-8.8e-7,"MEAN_MOTION_DDOT":0},{"OBJECT_NAME":"GPS BIIF-7  (PRN 09)","OBJECT_ID":"2014-045A","EPOCH":"2022-08-19T00:47:25.472544","MEAN_MOTION":2.00551532,"ECCENTRICITY":0.0021538,"INCLINATION":54.7036,"RA_OF_ASC_NODE":144.3063,"ARG_OF_PERICENTER":110.9976,"MEAN_ANOMALY":249.2544,"EPHEMERIS_TYPE":0,"CLASSIFICATION_TYPE":"U","NORAD_CAT_ID":40105,"ELEMENT_SET_NO":999,"REV_AT_EPOCH":5803,"BSTAR":0,"MEAN_MOTION_DOT":-3.1e-7,"MEAN_MOTION_DDOT":0},{"OBJECT_NAME":"GPS BIIF-8  (PRN 03)","OBJECT_ID":"2014-068A","EPOCH":"2022-08-18T21:44:05.714016","MEAN_MOTION":2.00575998,"ECCENTRICITY":0.0042724,"INCLINATION":55.8621,"RA_OF_ASC_NODE":85.4678,"ARG_OF_PERICENTER":57.6427,"MEAN_ANOMALY":302.8419,"EPHEMERIS_TYPE":0,"CLASSIFICATION_TYPE":"U","NORAD_CAT_ID":40294,"ELEMENT_SET_NO":999,"REV_AT_EPOCH":5716,"BSTAR":0,"MEAN_MOTION_DOT":-5.5e-7,"MEAN_MOTION_DDOT":0},{"OBJECT_NAME":"GPS BIIF-9  (PRN 26)","OBJECT_ID":"2015-013A","EPOCH":"2022-08-19T01:11:41.556192","MEAN_MOTION":2.00548605,"ECCENTRICITY":0.006984,"INCLINATION":53.6661,"RA_OF_ASC_NODE":262.101,"ARG_OF_PERICENTER":20.2228,"MEAN_ANOMALY":340.1069,"EPHEMERIS_TYPE":0,"CLASSIFICATION_TYPE":"U","NORAD_CAT_ID":40534,"ELEMENT_SET_NO":999,"REV_AT_EPOCH":5378,"BSTAR":0,"MEAN_MOTION_DOT":2.5e-7,"MEAN_MOTION_DDOT":0},{"OBJECT_NAME":"GPS BIIF-10 (PRN 08)","OBJECT_ID":"2015-033A","EPOCH":"2022-08-19T05:00:17.254656","MEAN_MOTION":2.00575158,"ECCENTRICITY":0.0073897,"INCLINATION":55.1496,"RA_OF_ASC_NODE":324.1522,"ARG_OF_PERICENTER":7.8014,"MEAN_ANOMALY":352.35,"EPHEMERIS_TYPE":0,"CLASSIFICATION_TYPE":"U","NORAD_CAT_ID":40730,"ELEMENT_SET_NO":999,"REV_AT_EPOCH":5195,"BSTAR":0,"MEAN_MOTION_DOT":-1.0e-6,"MEAN_MOTION_DDOT":0},{"OBJECT_NAME":"GPS BIIF-11 (PRN 10)","OBJECT_ID":"2015-062A","EPOCH":"2022-08-19T06:08:04.598592","MEAN_MOTION":2.0056275,"ECCENTRICITY":0.0079373,"INCLINATION":55.8501,"RA_OF_ASC_NODE":85.2983,"ARG_OF_PERICENTER":217.4226,"MEAN_ANOMALY":142.0921,"EPHEMERIS_TYPE":0,"CLASSIFICATION_TYPE":"U","NORAD_CAT_ID":41019,"ELEMENT_SET_NO":999,"REV_AT_EPOCH":4979,"BSTAR":0,"MEAN_MOTION_DOT":-5.4e-7,"MEAN_MOTION_DDOT":0},{"OBJECT_NAME":"GPS BIIF-12 (PRN 32)","OBJECT_ID":"2016-007A","EPOCH":"2022-08-19T08:16:07.338432","MEAN_MOTION":2.00567874,"ECCENTRICITY":0.0062401,"INCLINATION":54.9194,"RA_OF_ASC_NODE":144.9808,"ARG_OF_PERICENTER":230.3998,"MEAN_ANOMALY":129.0684,"EPHEMERIS_TYPE":0,"CLASSIFICATION_TYPE":"U","NORAD_CAT_ID":41328,"ELEMENT_SET_NO":999,"REV_AT_EPOCH":4780,"BSTAR":0,"MEAN_MOTION_DOT":-3.4e-7,"MEAN_MOTION_DDOT":0},{"OBJECT_NAME":"GPS BIII-1  (PRN 04)","OBJECT_ID":"2018-109A","EPOCH":"2022-08-19T05:19:40.729152","MEAN_MOTION":2.00553182,"ECCENTRICITY":0.0019804,"INCLINATION":55.0994,"RA_OF_ASC_NODE":147.4178,"ARG_OF_PERICENTER":191.2315,"MEAN_ANOMALY":334.9619,"EPHEMERIS_TYPE":0,"CLASSIFICATION_TYPE":"U","NORAD_CAT_ID":43873,"ELEMENT_SET_NO":999,"REV_AT_EPOCH":2703,"BSTAR":0,"MEAN_MOTION_DOT":-2.9e-7,"MEAN_MOTION_DDOT":0},{"OBJECT_NAME":"GPS BIII-2  (PRN 18)","OBJECT_ID":"2019-056A","EPOCH":"2022-08-19T09:58:17.878080","MEAN_MOTION":2.00558101,"ECCENTRICITY":0.0027096,"INCLINATION":55.7085,"RA_OF_ASC_NODE":26.5455,"ARG_OF_PERICENTER":178.821,"MEAN_ANOMALY":26.7559,"EPHEMERIS_TYPE":0,"CLASSIFICATION_TYPE":"U","NORAD_CAT_ID":44506,"ELEMENT_SET_NO":999,"REV_AT_EPOCH":2203,"BSTAR":0,"MEAN_MOTION_DOT":-8.6e-7,"MEAN_MOTION_DDOT":0},{"OBJECT_NAME":"GPS BIII-3  (PRN 23)","OBJECT_ID":"2020-041A","EPOCH":"2022-08-19T11:08:38.474880","MEAN_MOTION":2.00558127,"ECCENTRICITY":0.002497,"INCLINATION":55.5695,"RA_OF_ASC_NODE":83.8118,"ARG_OF_PERICENTER":176.6089,"MEAN_ANOMALY":0.7688,"EPHEMERIS_TYPE":0,"CLASSIFICATION_TYPE":"U","NORAD_CAT_ID":45854,"ELEMENT_SET_NO":999,"REV_AT_EPOCH":1600,"BSTAR":0,"MEAN_MOTION_DOT":-5.4e-7,"MEAN_MOTION_DDOT":0},{"OBJECT_NAME":"GPS BIII-4  (PRN 14)","OBJECT_ID":"2020-078A","EPOCH":"2022-08-19T07:57:00.805248","MEAN_MOTION":2.0056522,"ECCENTRICITY":0.002266,"INCLINATION":54.5271,"RA_OF_ASC_NODE":267.5428,"ARG_OF_PERICENTER":190.6602,"MEAN_ANOMALY":227.294,"EPHEMERIS_TYPE":0,"CLASSIFICATION_TYPE":"U","NORAD_CAT_ID":46826,"ELEMENT_SET_NO":999,"REV_AT_EPOCH":1347,"BSTAR":0,"MEAN_MOTION_DOT":1.8e-7,"MEAN_MOTION_DDOT":0},{"OBJECT_NAME":"GPS BIII-5  (PRN 11)","OBJECT_ID":"2021-054A","EPOCH":"2022-08-18T05:47:39.812064","MEAN_MOTION":2.00570087,"ECCENTRICITY":0.0006628,"INCLINATION":55.2152,"RA_OF_ASC_NODE":28.5616,"ARG_OF_PERICENTER":191.8229,"MEAN_ANOMALY":343.9417,"EPHEMERIS_TYPE":0,"CLASSIFICATION_TYPE":"U","NORAD_CAT_ID":48859,"ELEMENT_SET_NO":999,"REV_AT_EPOCH":869,"BSTAR":0,"MEAN_MOTION_DOT":-8.8e-7,"MEAN_MOTION_DDOT":0}]